[
    {
        "Altitude(m)": 605459.063168129,
        "Argument of Periapsis(deg)": 0.0,
        "Eccentricity": 0.0,
        "Inclination(deg)": 60.0,
        "Latitude(deg)": 27.98832559909378,
        "Longitude(deg)": 67.79855552335025,
        "Mean Anomaly(deg)": 32.727299999999985,
        "RAAN(deg)": 150.0,
        "Satellite Name": "Test1 662",
        "Satellite Number": 662,
        "Semi-Major Axis(m)": 6980739.136638005,
        "Time(s)": 0
    },
    {
        "Altitude(m)": 605535.8547054853,
        "Argument of Periapsis(deg)": 0.00010418945913296404,
        "Eccentricity": 0.0,
        "Inclination(deg)": 60.0,
        "Latitude(deg)": 28.50145544193705,
        "Longitude(deg)": 68.15550034015025,
        "Mean Anomaly(deg)": 33.34740614546184,
        "RAAN(deg)": 149.99957995086027,
        "Satellite Name": "Test1 662",
        "Satellite Number": 662,
        "Semi-Major Axis(m)": 6980739.136638005,
        "Time(s)": 10
    },
    {
        "Altitude(m)": 605614.3368508022,
        "Argument of Periapsis(deg)": 0.0002083789182659281,
        "Eccentricity": 0.0,
        "Inclination(deg)": 60.0,
        "Latitude(deg)": 29.013367759588576,
        "Longitude(deg)": 68.51631001286322,
        "Mean Anomaly(deg)": 33.967512290923665,
        "RAAN(deg)": 149.99915990172053,
        "Satellite Name": "Test1 662",
        "Satellite Number": 662,
        "Semi-Major Axis(m)": 6980739.136638005,
        "Time(s)": 20
    },
    {
        "Altitude(m)": 605694.451911732,
        "Argument of Periapsis(deg)": 0.00031256837739889213,
        "Eccentricity": 0.0,
        "Inclination(deg)": 60.0,
        "Latitude(deg)": 29.524025279057504,
        "Longitude(deg)": 68.88109629808127,
        "Mean Anomaly(deg)": 34.5876184363855,
        "RAAN(deg)": 149.99873985258077,
        "Satellite Name": "Test1 662",
        "Satellite Number": 662,
        "Semi-Major Axis(m)": 6980739.136638005,
        "Time(s)": 30
    },
    {
        "Altitude(m)": 605776.1415865623,
        "Argument of Periapsis(deg)": 0.0004167578365318562,
        "Eccentricity": 0.0,
        "Inclination(deg)": 60.0,
        "Latitude(deg)": 30.0333897308745,
        "Longitude(deg)": 69.2499739587309,
        "Mean Anomaly(deg)": 35.20772458184732,
        "RAAN(deg)": 149.99831980344103,
        "Satellite Name": "Test1 662",
        "Satellite Number": 662,
        "Semi-Major Axis(m)": 6980739.136638005,
        "Time(s)": 40
    },
    {
        "Altitude(m)": 605859.3469945857,
        "Argument of Periapsis(deg)": 0.0005209472956648203,
        "Eccentricity": 0.0,
        "Inclination(deg)": 60.0,
        "Latitude(deg)": 30.541421810355818,
        "Longitude(deg)": 69.62305982288896,
        "Mean Anomaly(deg)": 35.82783072730915,
        "RAAN(deg)": 149.9978997543013,
        "Satellite Name": "Test1 662",
        "Satellite Number": 662,
        "Semi-Major Axis(m)": 6980739.136638005,
        "Time(s)": 50
    },
    {
        "Altitude(m)": 605944.0087066737,
        "Argument of Periapsis(deg)": 0.0006251367547977843,
        "Eccentricity": 0.0,
        "Inclination(deg)": 60.0,
        "Latitude(deg)": 31.048081137511215,
        "Longitude(deg)": 70.0004733556475,
        "Mean Anomaly(deg)": 36.447936872770974,
        "RAAN(deg)": 149.99747970516157,
        "Satellite Name": "Test1 662",
        "Satellite Number": 662,
        "Semi-Major Axis(m)": 6980739.136638005,
        "Time(s)": 60
    },
    {
        "Altitude(m)": 606030.0667760881,
        "Argument of Periapsis(deg)": 0.0007293262139307483,
        "Eccentricity": 0.0,
        "Inclination(deg)": 60.0,
        "Latitude(deg)": 31.55332621555306,
        "Longitude(deg)": 70.38233723099034,
        "Mean Anomaly(deg)": 37.06804301823281,
        "RAAN(deg)": 149.9970596560218,
        "Satellite Name": "Test1 662",
        "Satellite Number": 662,
        "Semi-Major Axis(m)": 6980739.136638005,
        "Time(s)": 70
    },
    {
        "Altitude(m)": 606117.4607694693,
        "Argument of Periapsis(deg)": 0.0008335156730637124,
        "Eccentricity": 0.0,
        "Inclination(deg)": 60.0,
        "Latitude(deg)": 32.05711438796563,
        "Longitude(deg)": 70.768776390622,
        "Mean Anomaly(deg)": 37.68814916369463,
        "RAAN(deg)": 149.99663960688207,
        "Satellite Name": "Test1 662",
        "Satellite Number": 662,
        "Semi-Major Axis(m)": 6980739.136638005,
        "Time(s)": 80
    },
    {
        "Altitude(m)": 606206.1297980445,
        "Argument of Periapsis(deg)": 0.0009377051321966765,
        "Eccentricity": 0.0,
        "Inclination(deg)": 60.0,
        "Latitude(deg)": 32.55940179409767,
        "Longitude(deg)": 71.15991861528954,
        "Mean Anomaly(deg)": 38.30825530915646,
        "RAAN(deg)": 149.99621955774234,
        "Satellite Name": "Test1 662",
        "Satellite Number": 662,
        "Semi-Major Axis(m)": 6980739.136638005,
        "Time(s)": 90
    },
    {
        "Altitude(m)": 606296.0125489734,
        "Argument of Periapsis(deg)": 0.0010418945913296407,
        "Eccentricity": 0.0,
        "Inclination(deg)": 60.0,
        "Latitude(deg)": 33.06014332323809,
        "Longitude(deg)": 71.55589509549111,
        "Mean Anomaly(deg)": 38.92836145461828,
        "RAAN(deg)": 149.9957995086026,
        "Satellite Name": "Test1 662",
        "Satellite Number": 662,
        "Semi-Major Axis(m)": 6980739.136638005,
        "Time(s)": 100
    },
    {
        "Altitude(m)": 606387.0473168747,
        "Argument of Periapsis(deg)": 0.0011460840504626045,
        "Eccentricity": 0.0,
        "Inclination(deg)": 60.0,
        "Latitude(deg)": 33.559292567136836,
        "Longitude(deg)": 71.9568394884315,
        "Mean Anomaly(deg)": 39.54846760008014,
        "RAAN(deg)": 149.99537945946284,
        "Satellite Name": "Test1 662",
        "Satellite Number": 662,
        "Semi-Major Axis(m)": 6980739.136638005,
        "Time(s)": 110
    },
    {
        "Altitude(m)": 606479.1720354919,
        "Argument of Periapsis(deg)": 0.0012502735095955685,
        "Eccentricity": 0.0,
        "Inclination(deg)": 60.0,
        "Latitude(deg)": 34.05680177093733,
        "Longitude(deg)": 72.36288848668492,
        "Mean Anomaly(deg)": 40.16857374554196,
        "RAAN(deg)": 149.9949594103231,
        "Satellite Name": "Test1 662",
        "Satellite Number": 662,
        "Semi-Major Axis(m)": 6980739.136638005,
        "Time(s)": 120
    },
    {
        "Altitude(m)": 606572.3243094378,
        "Argument of Periapsis(deg)": 0.0013544629687285324,
        "Eccentricity": 0.0,
        "Inclination(deg)": 60.0,
        "Latitude(deg)": 34.55262178248606,
        "Longitude(deg)": 72.77418238536278,
        "Mean Anomaly(deg)": 40.788679891003795,
        "RAAN(deg)": 149.99453936118334,
        "Satellite Name": "Test1 662",
        "Satellite Number": 662,
        "Semi-Major Axis(m)": 6980739.136638005,
        "Time(s)": 130
    },
    {
        "Altitude(m)": 606666.4414461195,
        "Argument of Periapsis(deg)": 0.0014586524278614966,
        "Eccentricity": 0.0,
        "Inclination(deg)": 60.0,
        "Latitude(deg)": 35.046701999986716,
        "Longitude(deg)": 73.19086413455035,
        "Mean Anomaly(deg)": 41.40878603646562,
        "RAAN(deg)": 149.9941193120436,
        "Satellite Name": "Test1 662",
        "Satellite Number": 662,
        "Semi-Major Axis(m)": 6980739.136638005,
        "Time(s)": 140
    },
    {
        "Altitude(m)": 606761.4604876897,
        "Argument of Periapsis(deg)": 0.0015628418869944607,
        "Eccentricity": 0.0,
        "Inclination(deg)": 60.0,
        "Latitude(deg)": 35.53899031797351,
        "Longitude(deg)": 73.61307990236041,
        "Mean Anomaly(deg)": 42.02889218192745,
        "RAAN(deg)": 149.99369926290387,
        "Satellite Name": "Test1 662",
        "Satellite Number": 662,
        "Semi-Major Axis(m)": 6980739.136638005,
        "Time(s)": 150
    },
    {
        "Altitude(m)": 606857.3182431036,
        "Argument of Periapsis(deg)": 0.0016670313461274247,
        "Eccentricity": 0.0,
        "Inclination(deg)": 60.0,
        "Latitude(deg)": 36.029433071577785,
        "Longitude(deg)": 74.04097963528572,
        "Mean Anomaly(deg)": 42.64899832738928,
        "RAAN(deg)": 149.99327921376414,
        "Satellite Name": "Test1 662",
        "Satellite Number": 662,
        "Semi-Major Axis(m)": 6980739.136638005,
        "Time(s)": 160
    },
    {
        "Altitude(m)": 606953.9513202403,
        "Argument of Periapsis(deg)": 0.0017712208052603888,
        "Eccentricity": 0.0,
        "Inclination(deg)": 60.0,
        "Latitude(deg)": 36.517974979066935,
        "Longitude(deg)": 74.47471610248404,
        "Mean Anomaly(deg)": 43.26910447285113,
        "RAAN(deg)": 149.99285916462438,
        "Satellite Name": "Test1 662",
        "Satellite Number": 662,
        "Semi-Major Axis(m)": 6980739.136638005,
        "Time(s)": 170
    },
    {
        "Altitude(m)": 607051.2961580455,
        "Argument of Periapsis(deg)": 0.001875410264393353,
        "Eccentricity": 0.0,
        "Inclination(deg)": 60.0,
        "Latitude(deg)": 37.00455908264223,
        "Longitude(deg)": 74.91444544920617,
        "Mean Anomaly(deg)": 43.88921061831296,
        "RAAN(deg)": 149.99243911548464,
        "Satellite Name": "Test1 662",
        "Satellite Number": 662,
        "Semi-Major Axis(m)": 6980739.136638005,
        "Time(s)": 180
    },
    {
        "Altitude(m)": 607149.2890587222,
        "Argument of Periapsis(deg)": 0.0019795997235263173,
        "Eccentricity": 0.0,
        "Inclination(deg)": 60.0,
        "Latitude(deg)": 37.48912668748552,
        "Longitude(deg)": 75.36032774589802,
        "Mean Anomaly(deg)": 44.509316763774784,
        "RAAN(deg)": 149.9920190663449,
        "Satellite Name": "Test1 662",
        "Satellite Number": 662,
        "Semi-Major Axis(m)": 6980739.136638005,
        "Time(s)": 190
    }
]